{"type": "FeatureCollection", "features": [ {"type": "Feature", "properties": {"norad_id": 31268, "name": "FENGYUN 1C DEB", "group": "fengyun-1c-debris", "lat": 38.10821076524503, "lon": 32.24159486752828, "alt_km": 883.6810890786655, "timestamp": "2025-12-23T07:45:09.685777+00:00", "meta": {"OBJECT_NAME": "FENGYUN 1C DEB", "OBJECT_ID": "1999-025BNA", "EPOCH": "2025-12-13T20:28:59.966112", "MEAN_MOTION": 14.06415523, "ECCENTRICITY": 0.00495712, "INCLINATION": 98.7556, "RA_OF_ASC_NODE": 30.024, "ARG_OF_PERICENTER": 180.2607, "MEAN_ANOMALY": 179.8544, "EPHEMERIS_TYPE": 0, "CLASSIFICATION_TYPE": "U", "NORAD_CAT_ID": 31268, "ELEMENT_SET_NO": 999, "REV_AT_EPOCH": 62048, "BSTAR": 0.00090714334, "MEAN_MOTION_DOT": 1.473e-05, "MEAN_MOTION_DDOT": 0}, "tle": {"line1": "1 31268U 99025BNA 25347.85347183  .00001473  00000+0  90714-3 0  9993", "line2": "2 31268  98.7556  30.0240 0049571 180.2607 179.8544 14.06415523620480"}}, "geometry": {"type": "Point", "coordinates": [32.24159486752828, 38.10821076524503]}}, {"type": "Feature", "properties": {"norad_id": 31269, "name": "FENGYUN 1C DEB", "group": "fengyun-1c-debris", "lat": 51.1777289281615, "lon": 65.29594667714937, "alt_km": 810.1465951137397, "timestamp": "2025-12-23T07:45:09.685787+00:00", "meta": {"OBJECT_NAME": "FENGYUN 1C DEB", "OBJECT_ID": "1999-025BNB", "EPOCH": "2025-12-22T03:35:23.299008", "MEAN_MOTION": 14.4385363, "ECCENTRICITY": 0.02392527, "INCLINATION": 98.1797, "RA_OF_ASC_NODE": 233.8697, "ARG_OF_PERICENTER": 246.7734, "MEAN_ANOMALY": 267.8034, "EPHEMERIS_TYPE": 0, "CLASSIFICATION_TYPE": "U", "NORAD_CAT_ID": 31269, "ELEMENT_SET_NO": 999, "REV_AT_EPOCH": 96622, "BSTAR": 0.0019772605, "MEAN_MOTION_DOT": 9.515e-05, "MEAN_MOTION_DDOT": 0}, "tle": {"line1": "1 31269U 99025BNB 25356.14957522  .00009515  00000+0  19773-2 0  9990", "line2": "2 31269  98.1797 233.8697 0239252 246.7734 267.8034 14.43853630966220"}}, "geometry": {"type": "Point", "coordinates": [65.29594667714937, 51.1777289281615]}}, {"type": "Feature", "properties": {"norad_id": 31272, "name": "FENGYUN 1C DEB", "group": "fengyun-1c-debris", "lat": -34.961327993175956, "lon": 43.03956215135512, "alt_km": 873.3090876822052, "timestamp": "2025-12-23T07:45:09.685797+00:00", "meta": {"OBJECT_NAME": "FENGYUN 1C DEB", "OBJECT_ID": "1999-025BNE", "EPOCH": "2025-12-22T08:48:53.789472", "MEAN_MOTION": 14.22940595, "ECCENTRICITY": 0.01069895, "INCLINATION": 99.0917, "RA_OF_ASC_NODE": 228.4816, "ARG_OF_PERICENTER": 85.4609, "MEAN_ANOMALY": 275.878, "EPHEMERIS_TYPE": 0, "CLASSIFICATION_TYPE": "U", "NORAD_CAT_ID": 31272, "ELEMENT_SET_NO": 999, "REV_AT_EPOCH": 97126, "BSTAR": 0.00045110854, "MEAN_MOTION_DOT": 1.03e-05, "MEAN_MOTION_DDOT": 0}, "tle": {"line1": "1 31272U 99025BNE 25356.36728923  .00001030  00000+0  45111-3 0  9999", "line2": "2 31272  99.0917 228.4816 0106989  85.4609 275.8780 14.22940595971261"}}, "geometry": {"type": "Point", "coordinates": [43.03956215135512, -34.961327993175956]}}, {"type": "Feature", "properties": {"norad_id": 31274, "name": "FENGYUN 1C DEB", "group": "fengyun-1c-debris", "lat": 61.96878401704393, "lon": 158.96240166941683, "alt_km": 771.6749611509867, "timestamp": "2025-12-23T07:45:09.685807+00:00", "meta": {"OBJECT_NAME": "FENGYUN 1C DEB", "OBJECT_ID": "1999-025BNG", "EPOCH": "2025-12-20T18:48:10.459296", "MEAN_MOTION": 13.8564505, "ECCENTRICITY": 0.0237962, "INCLINATION": 99.0043, "RA_OF_ASC_NODE": 173.8465, "ARG_OF_PERICENTER": 88.2094, "MEAN_ANOMALY": 274.6299, "EPHEMERIS_TYPE": 0, "CLASSIFICATION_TYPE": "U", "NORAD_CAT_ID": 31274, "ELEMENT_SET_NO": 999, "REV_AT_EPOCH": 94318, "BSTAR": 0.00061688976, "MEAN_MOTION_DOT": 8.4e-06, "MEAN_MOTION_DDOT": 0}, "tle": {"line1": "1 31274U 99025BNG 25354.78345439  .00000840  00000+0  61689-3 0  9998", "line2": "2 31274  99.0043 173.8465 0237962  88.2094 274.6299 13.85645050943189"}}, "geometry": {"type": "Point", "coordinates": [158.96240166941683, 61.96878401704393]}}, {"type": "Feature", "properties": {"norad_id": 31275, "name": "FENGYUN 1C DEB", "group": "fengyun-1c-debris", "lat": 7.5956813957597396, "lon": -138.33328540469208, "alt_km": 953.1695485940663, "timestamp": "2025-12-23T07:45:09.685817+00:00", "meta": {"OBJECT_NAME": "FENGYUN 1C DEB", "OBJECT_ID": "1999-025BNH", "EPOCH": "2025-12-21T20:40:52.429152", "MEAN_MOTION": 14.0234552, "ECCENTRICITY": 0.01035338, "INCLINATION": 98.9442, "RA_OF_ASC_NODE": 39.0291, "ARG_OF_PERICENTER": 327.3413, "MEAN_ANOMALY": 32.1378, "EPHEMERIS_TYPE": 0, "CLASSIFICATION_TYPE": "U", "NORAD_CAT_ID": 31275, "ELEMENT_SET_NO": 999, "REV_AT_EPOCH": 95614, "BSTAR": 0.0007975008, "MEAN_MOTION_DOT": 1.238e-05, "MEAN_MOTION_DDOT": 0}, "tle": {"line1": "1 31275U 99025BNH 25355.86171793  .00001238  00000+0  79750-3 0  9999", "line2": "2 31275  98.9442  39.0291 0103533 327.3413  32.1378 14.02345520956143"}}, "geometry": {"type": "Point", "coordinates": [-138.33328540469208, 7.5956813957597396]}}, {"type": "Feature", "properties": {"norad_id": 31279, "name": "FENGYUN 1C DEB", "group": "fengyun-1c-debris", "lat": 16.41791002522041, "lon": -172.14925889553035, "alt_km": 753.5710259048956, "timestamp": "2025-12-23T07:45:09.685827+00:00", "meta": {"OBJECT_NAME": "FENGYUN 1C DEB", "OBJECT_ID": "1999-025BNM", "EPOCH": "2025-12-21T06:10:05.175840", "MEAN_MOTION": 14.26326116, "ECCENTRICITY": 0.0074035, "INCLINATION": 98.5169, "RA_OF_ASC_NODE": 3.3108, "ARG_OF_PERICENTER": 152.8288, "MEAN_ANOMALY": 207.6797, "EPHEMERIS_TYPE": 0, "CLASSIFICATION_TYPE": "U", "NORAD_CAT_ID": 31279, "ELEMENT_SET_NO": 999, "REV_AT_EPOCH": 97350, "BSTAR": 0.00037021, "MEAN_MOTION_DOT": 8.73e-06, "MEAN_MOTION_DDOT": 0}, "tle": {"line1": "1 31279U 99025BNM 25355.25700435  .00000873  00000+0  37021-3 0  9996", "line2": "2 31279  98.5169   3.3108 0074035 152.8288 207.6797 14.26326116973504"}}, "geometry": {"type": "Point", "coordinates": [-172.14925889553035, 16.41791002522041]}}, {"type": "Feature", "properties": {"norad_id": 31281, "name": "FENGYUN 1C DEB", "group": "fengyun-1c-debris", "lat": -22.789135923042497, "lon": 137.12849777908517, "alt_km": 501.5194393186566, "timestamp": "2025-12-23T07:45:09.685837+00:00", "meta": {"OBJECT_NAME": "FENGYUN 1C DEB", "OBJECT_ID": "1999-025BNP", "EPOCH": "2025-12-21T08:23:19.433472", "MEAN_MOTION": 15.17815538, "ECCENTRICITY": 0.01122806, "INCLINATION": 98.3826, "RA_OF_ASC_NODE": 131.3922, "ARG_OF_PERICENTER": 62.35, "MEAN_ANOMALY": 298.9075, "EPHEMERIS_TYPE": 0, "CLASSIFICATION_TYPE": "U", "NORAD_CAT_ID": 31281, "ELEMENT_SET_NO": 999, "REV_AT_EPOCH": 99862, "BSTAR": 0.00092786951, "MEAN_MOTION_DOT": 0.00022096, "MEAN_MOTION_DDOT": 0}, "tle": {"line1": "1 31281U 99025BNP 25355.34953048  .00022096  00000+0  92787-3 0  9990", "line2": "2 31281  98.3826 131.3922 0112280  62.3500 298.9075 15.17815538998622"}}, "geometry": {"type": "Point", "coordinates": [137.12849777908517, -22.789135923042497]}}, {"type": "Feature", "properties": {"norad_id": 31282, "name": "FENGYUN 1C DEB", "group": "fengyun-1c-debris", "lat": 51.11718554209298, "lon": -96.1513951711642, "alt_km": 825.2800571713733, "timestamp": "2025-12-23T07:45:09.685847+00:00", "meta": {"OBJECT_NAME": "FENGYUN 1C DEB", "OBJECT_ID": "1999-025BNQ", "EPOCH": "2025-12-21T12:15:18.433728", "MEAN_MOTION": 14.43483403, "ECCENTRICITY": 0.012684, "INCLINATION": 99.2174, "RA_OF_ASC_NODE": 273.5047, "ARG_OF_PERICENTER": 260.4464, "MEAN_ANOMALY": 98.2372, "EPHEMERIS_TYPE": 0, "CLASSIFICATION_TYPE": "U", "NORAD_CAT_ID": 31282, "ELEMENT_SET_NO": 999, "REV_AT_EPOCH": 97247, "BSTAR": 0.00017066, "MEAN_MOTION_DOT": 5.78e-06, "MEAN_MOTION_DDOT": 0}, "tle": {"line1": "1 31282U 99025BNQ 25355.51063002  .00000578  00000+0  17066-3 0  9990", "line2": "2 31282  99.2174 273.5047 0126840 260.4464  98.2372 14.43483403972479"}}, "geometry": {"type": "Point", "coordinates": [-96.1513951711642, 51.11718554209298]}}, {"type": "Feature", "properties": {"norad_id": 31284, "name": "FENGYUN 1C DEB", "group": "fengyun-1c-debris", "lat": 40.22568079122214, "lon": 84.0026973012577, "alt_km": 795.9308294800085, "timestamp": "2025-12-23T07:45:09.685857+00:00", "meta": {"OBJECT_NAME": "FENGYUN 1C DEB", "OBJECT_ID": "1999-025BNS", "EPOCH": "2025-12-22T12:40:03.682560", "MEAN_MOTION": 13.97912979, "ECCENTRICITY": 0.01423386, "INCLINATION": 99.7207, "RA_OF_ASC_NODE": 91.4976, "ARG_OF_PERICENTER": 32.3921, "MEAN_ANOMALY": 328.588, "EPHEMERIS_TYPE": 0, "CLASSIFICATION_TYPE": "U", "NORAD_CAT_ID": 31284, "ELEMENT_SET_NO": 999, "REV_AT_EPOCH": 95299, "BSTAR": 0.00044574412, "MEAN_MOTION_DOT": 6.4e-06, "MEAN_MOTION_DDOT": 0}, "tle": {"line1": "1 31284U 99025BNS 25356.52782040  .00000640  00000+0  44574-3 0  9998", "line2": "2 31284  99.7207  91.4976 0142338  32.3921 328.5880 13.97912979952996"}}, "geometry": {"type": "Point", "coordinates": [84.0026973012577, 40.22568079122214]}}, {"type": "Feature", "properties": {"norad_id": 31285, "name": "FENGYUN 1C DEB", "group": "fengyun-1c-debris", "lat": 14.391048026130616, "lon": -24.75170492673476, "alt_km": 916.809506928621, "timestamp": "2025-12-23T07:45:09.685889+00:00", "meta": {"OBJECT_NAME": "FENGYUN 1C DEB", "OBJECT_ID": "1999-025BNT", "EPOCH": "2025-12-22T10:29:44.507616", "MEAN_MOTION": 14.26048144, "ECCENTRICITY": 0.02002394, "INCLINATION": 98.5203, "RA_OF_ASC_NODE": 336.5908, "ARG_OF_PERICENTER": 158.4513, "MEAN_ANOMALY": 353.2366, "EPHEMERIS_TYPE": 0, "CLASSIFICATION_TYPE": "U", "NORAD_CAT_ID": 31285, "ELEMENT_SET_NO": 999, "REV_AT_EPOCH": 97437, "BSTAR": 0.00013555159, "MEAN_MOTION_DOT": 3.54e-06, "MEAN_MOTION_DDOT": 0}, "tle": {"line1": "1 31285U 99025BNT 25356.43732069  .00000354  00000+0  13555-3 0  9992", "line2": "2 31285  98.5203 336.5908 0200239 158.4513 353.2366 14.26048144974377"}}, "geometry": {"type": "Point", "coordinates": [-24.75170492673476, 14.391048026130616]}}]}